start=new Date('2021-12-26T00:00:00.000Z').valueOf();
sats=[{"SEMIMAJOR_AXIS":"6737.770","RA_OF_ASC_NODE":"197.8577","MEAN_MOTION":"15.69742658","ECCENTRICITY":"0.00037050","ARG_OF_PERICENTER":"272.3682","TLE_LINE1":"1 49168U 21082AQ  21359.91667824  .00044633  00000-0  37375-3 0  9992","REV_AT_EPOCH":"368","INCLINATION":"69.9983","RCS_SIZE":"LARGE","BSTAR":"0.00037375000000","OBJECT_ID":"2021-082AQ","PERIAPSIS":"357.139","GP_ID":"192459624","DECAY_DATE":null,"EPOCH":"2021-12-25T22:00:00.999936","FILE":"3250974","LAUNCH_DATE":"2021-09-14","TIME_SYSTEM":"UTC","MEAN_ELEMENT_THEORY":"SGP4","REF_FRAME":"TEME","APOAPSIS":"362.132","EPHEMERIS_TYPE":"0","ELEMENT_SET_NO":"999","SITE":"AFWTR","MEAN_MOTION_DDOT":"0.0000000000000","PERIOD":"91.735","COUNTRY_CODE":"US","OBJECT_NAME":"STARLINK-3101","OBJECT_TYPE":"PAYLOAD","TLE_LINE2":"2 49168  69.9983 197.8577 0003705 272.3682 183.7483 15.69742658  3687","CLASSIFICATION_TYPE":"U","NORAD_CAT_ID":"49168","MEAN_ANOMALY":"183.7483","CENTER_NAME":"EARTH","MEAN_MOTION_DOT":"0.00044633"},{"REV_AT_EPOCH":"368","TLE_LINE1":"1 49169U 21082AR  21359.91667824  .00051424  00000-0  43047-3 0  9992","SEMIMAJOR_AXIS":"6737.845","MEAN_MOTION":"15.69716530","RA_OF_ASC_NODE":"197.8647","ARG_OF_PERICENTER":"269.4802","ECCENTRICITY":"0.00036080","GP_ID":"192458446","PERIAPSIS":"357.279","FILE":"3250974","DECAY_DATE":null,"EPOCH":"2021-12-25T22:00:00.999936","RCS_SIZE":"LARGE","INCLINATION":"69.9990","OBJECT_ID":"2021-082AR","BSTAR":"0.00043047000000","REF_FRAME":"TEME","MEAN_ELEMENT_THEORY":"SGP4","ELEMENT_SET_NO":"999","EPHEMERIS_TYPE":"0","APOAPSIS":"362.141","TIME_SYSTEM":"UTC","LAUNCH_DATE":"2021-09-14","TLE_LINE2":"2 49169  69.9990 197.8647 0003608 269.4802 182.2385 15.69716530  3682","OBJECT_TYPE":"PAYLOAD","COUNTRY_CODE":"US","OBJECT_NAME":"STARLINK-3046","MEAN_MOTION_DOT":"0.00051424","NORAD_CAT_ID":"49169","MEAN_ANOMALY":"182.2385","CENTER_NAME":"EARTH","CLASSIFICATION_TYPE":"U","PERIOD":"91.736","MEAN_MOTION_DDOT":"0.0000000000000","SITE":"AFWTR"},{"TLE_LINE2":"2 49170  70.0001 204.2354 0003245 275.8004 134.4674 15.04551790  3617","OBJECT_TYPE":"PAYLOAD","COUNTRY_CODE":"US","OBJECT_NAME":"STARLINK-3074","MEAN_MOTION_DOT":"-0.00666801","CENTER_NAME":"EARTH","NORAD_CAT_ID":"49170","MEAN_ANOMALY":"134.4674","CLASSIFICATION_TYPE":"U","PERIOD":"95.710","MEAN_MOTION_DDOT":"0.0000000000000","SITE":"AFWTR","REF_FRAME":"TEME","MEAN_ELEMENT_THEORY":"SGP4","ELEMENT_SET_NO":"999","APOAPSIS":"555.133","EPHEMERIS_TYPE":"0","TIME_SYSTEM":"UTC","LAUNCH_DATE":"2021-09-14","GP_ID":"192459155","PERIAPSIS":"550.635","FILE":"3250974","DECAY_DATE":null,"EPOCH":"2021-12-25T22:00:00.999936","RCS_SIZE":"LARGE","INCLINATION":"70.0001","OBJECT_ID":"2021-082AS","BSTAR":"-0.05074700000000","REV_AT_EPOCH":"361","TLE_LINE1":"1 49170U 21082AS  21359.91667824 -.00666801  00000-0 -50747-1 0  9990","SEMIMAJOR_AXIS":"6931.019","MEAN_MOTION":"15.04551790","RA_OF_ASC_NODE":"204.2354","ARG_OF_PERICENTER":"275.8004","ECCENTRICITY":"0.00032450"},{"REV_AT_EPOCH":"361","TLE_LINE1":"1 49171U 21082AT  21359.91667824 -.00662524  00000-0 -51201-1 0  9995","SEMIMAJOR_AXIS":"6932.826","RA_OF_ASC_NODE":"204.2495","MEAN_MOTION":"15.03963580","ARG_OF_PERICENTER":"269.0942","ECCENTRICITY":"0.00031510","GP_ID":"192459391","PERIAPSIS":"552.506","FILE":"3250974","EPOCH":"2021-12-25T22:00:00.999936","DECAY_DATE":null,"RCS_SIZE":"LARGE","INCLINATION":"70.0000","OBJECT_ID":"2021-082AT","BSTAR":"-0.05120100000000","REF_FRAME":"TEME","MEAN_ELEMENT_THEORY":"SGP4","ELEMENT_SET_NO":"999","APOAPSIS":"556.875","EPHEMERIS_TYPE":"0","TIME_SYSTEM":"UTC","LAUNCH_DATE":"2021-09-14","TLE_LINE2":"2 49171  70.0000 204.2495 0003151 269.0942  34.3086 15.03963580  3613","OBJECT_TYPE":"PAYLOAD","COUNTRY_CODE":"US","OBJECT_NAME":"STARLINK-3107","MEAN_MOTION_DOT":"-0.00662524","NORAD_CAT_ID":"49171","CENTER_NAME":"EARTH","MEAN_ANOMALY":"34.3086","CLASSIFICATION_TYPE":"U","PERIOD":"95.747","MEAN_MOTION_DDOT":"0.0000000000000","SITE":"AFWTR"},{"SITE":"AFWTR","MEAN_MOTION_DDOT":"0.0000000000000","PERIOD":"91.737","CLASSIFICATION_TYPE":"U","MEAN_ANOMALY":"191.1181","NORAD_CAT_ID":"49172","CENTER_NAME":"EARTH","MEAN_MOTION_DOT":"0.00051085","COUNTRY_CODE":"US","OBJECT_NAME":"STARLINK-3091","OBJECT_TYPE":"PAYLOAD","TLE_LINE2":"2 49172  69.9991 197.8500 0003402 273.5224 191.1181 15.69712595  3681","LAUNCH_DATE":"2021-09-14","TIME_SYSTEM":"UTC","APOAPSIS":"362.014","EPHEMERIS_TYPE":"0","ELEMENT_SET_NO":"999","MEAN_ELEMENT_THEORY":"SGP4","REF_FRAME":"TEME","BSTAR":"0.00042775000000","OBJECT_ID":"2021-082AU","INCLINATION":"69.9991","RCS_SIZE":"LARGE","EPOCH":"2021-12-25T22:00:00.999936","DECAY_DATE":null,"FILE":"3250974","PERIAPSIS":"357.429","GP_ID":"192460095","ECCENTRICITY":"0.00034020","ARG_OF_PERICENTER":"273.5224","SEMIMAJOR_AXIS":"6737.856","RA_OF_ASC_NODE":"197.8500","MEAN_MOTION":"15.69712595","TLE_LINE1":"1 49172U 21082AU  21359.91667824  .00051085  00000-0  42775-3 0  9996","REV_AT_EPOCH":"368"},{"SITE":"AFWTR","PERIOD":"91.736","MEAN_MOTION_DDOT":"0.0000000000000","CENTER_NAME":"EARTH","NORAD_CAT_ID":"49173","MEAN_ANOMALY":"107.2705","CLASSIFICATION_TYPE":"U","MEAN_MOTION_DOT":"0.00045755","OBJECT_NAME":"STARLINK-3045","COUNTRY_CODE":"US","TLE_LINE2":"2 49173  69.9984 197.5405 0003207 263.8107 107.2705 15.69720361  3680","OBJECT_TYPE":"PAYLOAD","LAUNCH_DATE":"2021-09-14","TIME_SYSTEM":"UTC","APOAPSIS":"361.860","EPHEMERIS_TYPE":"0","ELEMENT_SET_NO":"999","MEAN_ELEMENT_THEORY":"SGP4","REF_FRAME":"TEME","BSTAR":"0.00038344000000","OBJECT_ID":"2021-082AV","RCS_SIZE":"LARGE","INCLINATION":"69.9984","FILE":"3250974","DECAY_DATE":null,"EPOCH":"2021-12-25T22:00:00.999936","PERIAPSIS":"357.538","GP_ID":"192458919","ECCENTRICITY":"0.00032070","ARG_OF_PERICENTER":"263.8107","MEAN_MOTION":"15.69720361","SEMIMAJOR_AXIS":"6737.834","RA_OF_ASC_NODE":"197.5405","TLE_LINE1":"1 49173U 21082AV  21359.91667824  .00045755  00000-0  38344-3 0  9991","REV_AT_EPOCH":"368"},{"APOAPSIS":"362.216","EPHEMERIS_TYPE":"0","ELEMENT_SET_NO":"999","MEAN_ELEMENT_THEORY":"SGP4","REF_FRAME":"TEME","LAUNCH_DATE":"2021-09-14","TIME_SYSTEM":"UTC","NORAD_CAT_ID":"49174","CENTER_NAME":"EARTH","MEAN_ANOMALY":"187.6282","CLASSIFICATION_TYPE":"U","MEAN_MOTION_DOT":"0.00035667","COUNTRY_CODE":"US","OBJECT_NAME":"STARLINK-3047","TLE_LINE2":"2 49174  69.9976 197.8600 0003752 272.7488 187.6282 15.69724385  3680","OBJECT_TYPE":"PAYLOAD","SITE":"AFWTR","PERIOD":"91.736","MEAN_MOTION_DDOT":"0.0000000000000","TLE_LINE1":"1 49174U 21082AW  21359.91667824  .00035667  00000-0  29957-3 0  9993","REV_AT_EPOCH":"368","ECCENTRICITY":"0.00037520","ARG_OF_PERICENTER":"272.7488","SEMIMAJOR_AXIS":"6737.823","RA_OF_ASC_NODE":"197.8600","MEAN_MOTION":"15.69724385","FILE":"3250974","DECAY_DATE":null,"EPOCH":"2021-12-25T22:00:00.999936","PERIAPSIS":"357.160","GP_ID":"192458682","BSTAR":"0.00029957000000","OBJECT_ID":"2021-082AW","RCS_SIZE":"LARGE","INCLINATION":"69.9976"},{"TLE_LINE1":"1 49175U 21082AX  21359.91667824  .00024986  00000-0  21033-3 0  9993","REV_AT_EPOCH":"368","SEMIMAJOR_AXIS":"6737.711","MEAN_MOTION":"15.69763395","RA_OF_ASC_NODE":"197.8499","ECCENTRICITY":"0.00033990","ARG_OF_PERICENTER":"272.6809","PERIAPSIS":"357.286","GP_ID":"192459861","DECAY_DATE":null,"EPOCH":"2021-12-25T22:00:00.999936","FILE":"3250974","INCLINATION":"69.9974","RCS_SIZE":"LARGE","BSTAR":"0.00021033000000","OBJECT_ID":"2021-082AX","MEAN_ELEMENT_THEORY":"SGP4","REF_FRAME":"TEME","EPHEMERIS_TYPE":"0","APOAPSIS":"361.866","ELEMENT_SET_NO":"999","LAUNCH_DATE":"2021-09-14","TIME_SYSTEM":"UTC","COUNTRY_CODE":"US","OBJECT_NAME":"STARLINK-3087","OBJECT_TYPE":"PAYLOAD","TLE_LINE2":"2 49175  69.9974 197.8499 0003399 272.6809 194.0454 15.69763395  3685","CLASSIFICATION_TYPE":"U","NORAD_CAT_ID":"49175","CENTER_NAME":"EARTH","MEAN_ANOMALY":"194.0454","MEAN_MOTION_DOT":"0.00024986","SITE":"AFWTR","MEAN_MOTION_DDOT":"0.0000000000000","PERIOD":"91.734"},{"REV_AT_EPOCH":"368","TLE_LINE1":"1 49176U 21082AY  21359.91667824  .00038781  00000-0  32502-3 0  9995","RA_OF_ASC_NODE":"197.8365","SEMIMAJOR_AXIS":"6737.725","MEAN_MOTION":"15.69758405","ARG_OF_PERICENTER":"271.8213","ECCENTRICITY":"0.00032560","GP_ID":"192459625","PERIAPSIS":"357.396","FILE":"3250974","DECAY_DATE":null,"EPOCH":"2021-12-25T22:00:00.999936","RCS_SIZE":"LARGE","INCLINATION":"69.9987","OBJECT_ID":"2021-082AY","BSTAR":"0.00032502000000","REF_FRAME":"TEME","MEAN_ELEMENT_THEORY":"SGP4","ELEMENT_SET_NO":"999","APOAPSIS":"361.784","EPHEMERIS_TYPE":"0","TIME_SYSTEM":"UTC","LAUNCH_DATE":"2021-09-14","TLE_LINE2":"2 49176  69.9987 197.8365 0003256 271.8213 203.3747 15.69758405  3689","OBJECT_TYPE":"PAYLOAD","COUNTRY_CODE":"US","OBJECT_NAME":"STARLINK-3069","MEAN_MOTION_DOT":"0.00038781","NORAD_CAT_ID":"49176","CENTER_NAME":"EARTH","MEAN_ANOMALY":"203.3747","CLASSIFICATION_TYPE":"U","PERIOD":"91.734","MEAN_MOTION_DDOT":"0.0000000000000","SITE":"AFWTR"},{"TLE_LINE1":"1 49177U 21082AZ  21359.91667824  .00050995  00000-0  42686-3 0  9991","REV_AT_EPOCH":"368","ECCENTRICITY":"0.00033940","ARG_OF_PERICENTER":"274.9030","RA_OF_ASC_NODE":"197.8434","SEMIMAJOR_AXIS":"6737.834","MEAN_MOTION":"15.69720550","DECAY_DATE":null,"EPOCH":"2021-12-25T22:00:00.999936","FILE":"3250974","PERIAPSIS":"357.412","GP_ID":"192458447","BSTAR":"0.00042686000000","OBJECT_ID":"2021-082AZ","INCLINATION":"70.0003","RCS_SIZE":"LARGE","APOAPSIS":"361.985","EPHEMERIS_TYPE":"0","ELEMENT_SET_NO":"999","MEAN_ELEMENT_THEORY":"SGP4","REF_FRAME":"TEME","LAUNCH_DATE":"2021-09-14","TIME_SYSTEM":"UTC","CLASSIFICATION_TYPE":"U","NORAD_CAT_ID":"49177","MEAN_ANOMALY":"193.9984","CENTER_NAME":"EARTH","MEAN_MOTION_DOT":"0.00050995","COUNTRY_CODE":"US","OBJECT_NAME":"STARLINK-3103","OBJECT_TYPE":"PAYLOAD","TLE_LINE2":"2 49177  70.0003 197.8434 0003394 274.9030 193.9984 15.69720550  3680","SITE":"AFWTR","MEAN_MOTION_DDOT":"0.0000000000000","PERIOD":"91.736"}];
